NORAD_CAT_ID,OBJECT_NAME,OBJECT_TYPE,EPOCH,MEAN_MOTION,ECCENTRICITY,INCLINATION,RA_OF_ASC_NODE,ARG_OF_PERICENTER,MEAN_ANOMALY,BSTAR,MEAN_MOTION_DOT,MEAN_MOTION_DDOT,TLE_LINE0,TLE_LINE1,TLE_LINE2,SEMIMAJOR_AXIS,PERIOD,APOGEE,PERIGEE,DECAYED
51124.0,STARLINK-3389,PAYLOAD,2024-04-30 04:44:15,15.08830979,0.000133,53.2177,104.9918,90.9615,269.153,0.00012553,1.71e-05,0.0,0 STARLINK-3389,1 51124U 22005W   24121.19739821  .00001710  00000-0  12553-3 0  9990,2 51124  53.2177 104.9918 0001330  90.9615 269.1530 15.08830979127421,6917.908,95.438,540.693,538.853,0.0
51124.0,STARLINK-3389,PAYLOAD,2024-04-30 06:19:38,15.08832064,0.0001329,53.2178,104.6945,90.474,269.6405,0.00013335,1.835e-05,0.0,0 STARLINK-3389,1 51124U 22005W   24121.26363781  .00001835  00000-0  13335-3 0  9993,2 51124  53.2178 104.6945 0001329  90.4740 269.6405 15.08832064126322,6917.905,95.438,540.689,538.85,0.0
51124.0,STARLINK-3389,PAYLOAD,2024-04-30 15:51:56,15.08839461,0.0001339,53.2179,102.9104,90.6896,269.4249,0.00014279,1.985e-05,0.0,0 STARLINK-3389,1 51124U 22005W   24121.66107422  .00001985  00000-0  14279-3 0  9999,2 51124  53.2179 102.9104 0001339  90.6896 269.4249 15.08839461127497,6917.882,95.438,540.673,538.821,0.0
51124.0,STARLINK-3389,PAYLOAD,2024-04-30 22:13:29,15.08837269,0.0001397,53.2179,101.7212,91.376,268.7392,0.00011205,1.496e-05,0.0,0 STARLINK-3389,1 51124U 22005W   24121.92603729  .00001496  00000-0  11205-3 0  9992,2 51124  53.2179 101.7212 0001397  91.3760 268.7392 15.08837269126423,6917.889,95.438,540.72,538.787,0.0
51124.0,STARLINK-3389,PAYLOAD,2024-05-01 04:35:02,15.0883945,0.000143,53.2181,100.532,91.2985,268.8171,3.6348e-05,2.91e-06,0.0,0 STARLINK-3389,1 51124U 22005W   24122.19099903  .00000291  00000-0  36348-4 0  9993,2 51124  53.2181 100.5320 0001430  91.2985 268.8171 15.08839450126463,6917.882,95.438,540.736,538.758,0.0
51124.0,STARLINK-3389,PAYLOAD,2024-05-01 22:04:16,15.08845064,0.000178,53.2189,97.2593,87.1653,272.9543,4.6226e-05,4.48e-06,0.0,0 STARLINK-3389,1 51124U 22005W   24122.91963412  .00000448  00000-0  46226-4 0  9998,2 51124  53.2189  97.2593 0001780  87.1653 272.9543 15.08845064126578,6917.865,95.437,540.961,538.499,0.0
51124.0,STARLINK-3389,PAYLOAD,2024-05-02 04:25:48,15.08845426,0.0001347,53.2175,96.0702,91.5702,268.5445,6.5296e-05,7.52e-06,0.0,0 STARLINK-3389,1 51124U 22005W   24123.18459161  .00000752  00000-0  65296-4 0  9995,2 51124  53.2175  96.0702 0001347  91.5702 268.5445 15.08845426127727,6917.864,95.437,540.661,538.797,0.0
51124.0,STARLINK-3389,PAYLOAD,2024-05-02 07:36:34,15.08847518,0.0001384,53.2177,95.4755,102.4273,257.6874,7.358e-05,8.84e-06,0.0,0 STARLINK-3389,1 51124U 22005W   24123.31706930  .00000884  00000-0  73580-4 0  9990,2 51124  53.2177  95.4755 0001384 102.4273 257.6874 15.08847518126634,6917.857,95.437,540.68,538.765,0.0
51124.0,STARLINK-3389,PAYLOAD,2024-05-03 04:16:36,15.08833953,0.0001463,53.2173,91.6084,93.5454,266.5706,-9.9741e-06,-4.47e-06,0.0,0 STARLINK-3389,1 51124U 22005W   24124.17819804 -.00000447  00000-0 -99741-5 0  9995,2 51124  53.2173  91.6084 0001463  93.5454 266.5706 15.08833953127870,6917.899,95.438,540.776,538.752,0.0
51124.0,STARLINK-3389,PAYLOAD,2024-05-03 15:24:17,15.08846577,0.0001508,53.2174,89.5267,95.082,265.0344,2.8232e-05,1.61e-06,0.0,0 STARLINK-3389,1 51124U 22005W   24124.64186793  .00000161  00000-0  28232-4 0  9998,2 51124  53.2174  89.5267 0001508  95.0820 265.0344 15.08846577127940,6917.86,95.437,540.768,538.682,0.0
51124.0,STARLINK-3389,PAYLOAD,2024-05-04 04:07:24,15.08825687,0.0001383,53.2178,87.1488,96.4194,263.6956,-0.00015287,-2.719e-05,0.0,0 STARLINK-3389,1 51124U 22005W   24125.17180909 -.00002719  00000-0 -15287-3 0  9998,2 51124  53.2178  87.1488 0001383  96.4194 263.6956 15.08825687128025,6917.924,95.438,540.746,538.832,0.0
51124.0,STARLINK-3389,PAYLOAD,2024-05-04 21:36:38,15.0883001,0.0001549,53.2181,83.8774,98.735,261.3817,2.8639e-05,1.68e-06,0.0,0 STARLINK-3389,1 51124U 22005W   24125.90044558  .00000168  00000-0  28639-4 0  9998,2 51124  53.2181  83.8774 0001549  98.7350 261.3817 15.08830010128132,6917.911,95.438,540.848,538.704,0.0
51124.0,STARLINK-3389,PAYLOAD,2024-05-05 07:08:56,15.08842153,0.0001477,53.2183,82.095,95.5094,264.6067,4.8938e-05,4.91e-06,0.0,0 STARLINK-3389,1 51124U 22005W   24126.29788077  .00000491  00000-0  48938-4 0  9995,2 51124  53.2183  82.0950 0001477  95.5094 264.6067 15.08842153128191,6917.874,95.437,540.761,538.717,0.0
51124.0,STARLINK-3389,PAYLOAD,2024-05-06 13:21:15,15.08857624,0.0001475,53.2186,76.4457,102.0885,258.0272,0.0003717,5.635e-05,0.0,0 STARLINK-3389,1 51124U 22005W   24127.55643049  .00005635  00000-0  37170-3 0  9994,2 51124  53.2186  76.4457 0001475 102.0885 258.0272 15.08857624128388,6917.827,95.436,540.712,538.671,0.0
51124.0,STARLINK-3389,PAYLOAD,2024-05-07 03:39:44,15.08847451,0.0001432,53.2174,73.7685,96.5207,263.5948,9.2711e-05,1.188e-05,0.0,0 STARLINK-3389,1 51124U 22005W   24128.15259830  .00001188  00000-0  92711-4 0  9994,2 51124  53.2174  73.7685 0001432  96.5207 263.5948 15.08847451128474,6917.858,95.437,540.713,538.732,0.0
51124.0,STARLINK-3389,PAYLOAD,2024-05-07 13:12:02,15.08857982,0.0001416,53.2178,71.9848,84.3793,275.7361,0.00022404,3.281e-05,0.0,0 STARLINK-3389,1 51124U 22005W   24128.55003027  .00003281  00000-0  22404-3 0  9990,2 51124  53.2178  71.9848 0001416  84.3793 275.7361 15.08857982127424,6917.825,95.436,540.67,538.711,0.0
51124.0,STARLINK-3389,PAYLOAD,2024-05-08 03:30:31,15.08835566,0.0001475,53.2186,69.3083,84.5665,275.5496,-9.6043e-05,-1.816e-05,0.0,0 STARLINK-3389,1 51124U 22005W   24129.14619814 -.00001816  00000-0 -96043-4 0  9998,2 51124  53.2186  69.3083 0001475  84.5665 275.5496 15.08835566128624,6917.894,95.438,540.779,538.739,0.0
51124.0,STARLINK-3389,PAYLOAD,2024-05-08 13:02:50,15.08838456,0.0001501,53.2182,67.526,92.9291,267.1872,0.00043757,6.683e-05,0.0,0 STARLINK-3389,1 51124U 22005W   24129.54364035  .00006683  00000-0  43757-3 0  9992,2 51124  53.2182  67.5260 0001501  92.9291 267.1872 15.08838456127574,6917.885,95.438,540.788,538.712,0.0
51124.0,STARLINK-3389,PAYLOAD,2024-05-09 12:53:37,15.08855819,0.0001121,53.2174,63.0637,83.3287,276.7833,0.0006447,9.992e-05,0.0,0 STARLINK-3389,1 51124U 22005W   24130.53723701  .00009992  00000-0  64470-3 0  9993,2 51124  53.2174  63.0637 0001121  83.3287 276.7833 15.08855819127723,6917.832,95.437,540.473,538.922,0.0
51124.0,STARLINK-3389,PAYLOAD,2024-05-10 01:36:42,15.08841186,0.0001564,53.2188,60.6841,85.1279,274.9891,0.00024705,3.646e-05,0.0,0 STARLINK-3389,1 51124U 22005W   24131.06716398  .00003646  00000-0  24705-3 0  9993,2 51124  53.2188  60.6841 0001564  85.1279 274.9891 15.08841186128918,6917.877,95.437,540.824,538.66,0.0
51124.0,STARLINK-3389,PAYLOAD,2024-05-10 12:44:24,15.08855519,0.0001523,53.2185,58.6039,84.8187,275.2979,0.00062051,9.605e-05,0.0,0 STARLINK-3389,1 51124U 22005W   24131.53083986  .00009605  00000-0  62051-3 0  9992,2 51124  53.2185  58.6039 0001523  84.8187 275.2979 15.08855519127870,6917.833,95.437,540.752,538.644,0.0
51124.0,STARLINK-3389,PAYLOAD,2024-05-11 04:38:15,15.08879375,0.0001576,53.2183,55.6271,132.2779,227.8347,0.0018446,0.00029223,0.0,0 STARLINK-3389,1 51124U 22005W   24132.19323327  .00029223  00000-0  18446-2 0  9997,2 51124  53.2183  55.6271 0001576 132.2779 227.8347 15.08879375129089,6917.76,95.435,540.715,538.535,0.0
51124.0,STARLINK-3389,PAYLOAD,2024-05-11 18:56:45,15.08828507,0.0001547,53.2211,52.9538,114.7747,245.3407,0.00035866,5.423e-05,0.0,0 STARLINK-3389,1 51124U 22005W   24132.78941118  .00005423  00000-0  35866-3 0  9998,2 51124  53.2211  52.9538 0001547 114.7747 245.3407 15.08828507129178,6917.916,95.438,540.851,538.71,0.0
51124.0,STARLINK-3389,PAYLOAD,2024-05-11 22:07:32,15.08771501,0.0001077,53.2206,52.3592,16.1267,343.976,0.00028465,4.237e-05,0.0,0 STARLINK-3389,1 51124U 22005W   24132.92190481  .00004237  00000-0  28465-3 0  9992,2 51124  53.2206  52.3592 0001077  16.1267 343.9760 15.08771501128083,6918.09,95.442,540.7,539.21,0.0
51124.0,STARLINK-3389,PAYLOAD,2024-05-12 01:18:19,15.08757725,7.63e-05,53.2197,51.7654,74.7947,285.3129,7.6459e-05,9.27e-06,0.0,0 STARLINK-3389,1 51124U 22005W   24133.05439040  .00000927  00000-0  76459-4 0  9993,2 51124  53.2197  51.7654 0000763  74.7947 285.3129 15.08757725129216,6918.132,95.443,540.525,539.469,0.0
51124.0,STARLINK-3389,PAYLOAD,2024-05-12 21:58:20,15.08856617,0.0001285,53.2199,47.8969,86.4762,273.6377,0.0020612,0.00032683,0.0,0 STARLINK-3389,1 51124U 22005W   24133.91551744  .00032683  00000-0  20612-2 0  9996,2 51124  53.2199  47.8969 0001285  86.4762 273.6377 15.08856617128234,6917.83,95.437,540.584,538.806,0.0
51124.0,STARLINK-3389,PAYLOAD,2024-05-13 01:09:06,15.08860861,0.0001249,53.2184,47.3048,81.8715,278.2419,0.0013678,0.0002156,0.0,0 STARLINK-3389,1 51124U 22005W   24134.04799498  .00021560  00000-0  13678-2 0  9997,2 51124  53.2184  47.3048 0001249  81.8715 278.2419 15.08860861129367,6917.817,95.436,540.546,538.818,0.0
51124.0,STARLINK-3389,PAYLOAD,2024-05-13 10:41:24,15.08881091,0.0001272,53.2185,45.5224,89.1025,271.0113,0.0015939,0.00025199,0.0,0 STARLINK-3389,1 51124U 22005W   24134.44542668  .00025199  00000-0  15939-2 0  9990,2 51124  53.2185  45.5224 0001272  89.1025 271.0113 15.08881091128319,6917.755,95.435,540.5,538.74,0.0
51124.0,STARLINK-3389,PAYLOAD,2024-05-13 18:38:19,15.08876507,0.0001468,53.218,44.0337,73.0325,287.0828,0.00079238,0.00012358,0.0,0 STARLINK-3389,1 51124U 22005W   24134.77662028  .00012358  00000-0  79238-3 0  9995,2 51124  53.2180  44.0337 0001468  73.0325 287.0828 15.08876507129479,6917.769,95.435,540.649,538.618,0.0
51124.0,STARLINK-3389,PAYLOAD,2024-05-14 10:32:09,15.08886906,0.0001244,53.2175,41.0586,62.9996,297.1124,0.00097638,0.00015305,0.0,0 STARLINK-3389,1 51124U 22005W   24135.43900399  .00015305  00000-0  97638-3 0  9994,2 51124  53.2175  41.0586 0001244  62.9996 297.1124 15.08886906128462,6917.737,95.435,540.463,538.741,0.0
